OBJECT_NAME,OBJECT_ID,EPOCH,MEAN_MOTION,ECCENTRICITY,INCLINATION,RA_OF_ASC_NODE,ARG_OF_PERICENTER,MEAN_ANOMALY,EPHEMERIS_TYPE,CLASSIFICATION_TYPE,NORAD_CAT_ID,ELEMENT_SET_NO,REV_AT_EPOCH,BSTAR,MEAN_MOTION_DOT,MEAN_MOTION_DDOT
ONEWEB-0275,2021-060AC,2026-07-15T12:00:24.812352,13.16595599,.00020031,87.9080,223.1519,95.8049,264.3310,0,U,48993,999,24328,.77845174E-4,.43E-6,0
ONEWEB-0276,2021-060AD,2026-07-15T12:48:18.817632,13.16594250,.00018949,87.9080,223.1443,95.0668,265.0679,0,U,48994,999,24330,.37867796E-3,.158E-5,0
ONEWEB-0277,2021-060AE,2026-07-15T13:06:33.423552,13.16595375,.00021458,87.9075,223.1487,97.3051,262.8324,0,U,48995,999,24329,.74717913E-4,.41E-6,0
ONEWEB-0278,2021-060AF,2026-07-15T12:52:52.459392,13.16594371,.00021877,87.9080,223.1431,89.6866,270.4516,0,U,48996,999,24342,.50014283E-3,.204E-5,0
ONEWEB-0279,2021-060AG,2026-07-15T13:04:16.432896,13.16594207,.00019987,87.9082,223.1394,100.7690,259.3666,0,U,48997,999,24335,-.37425732E-4,-.1E-7,0
ONEWEB-0280,2021-060AH,2026-07-15T11:36:29.148480,13.16595121,.00024404,87.9082,223.1559,94.6506,265.4904,0,U,48998,999,24328,-.7710688E-5,.1E-6,0
ONEWEB-0281,2021-060AJ,2026-07-15T11:44:28.338432,13.16593794,.00020976,87.9080,223.1503,91.8443,268.2928,0,U,48999,999,24335,-.31741023E-4,.1E-7,0
ONEWEB-0282,2021-060AK,2026-07-15T10:38:21.153696,13.16594845,.00021701,87.9077,223.1671,96.4204,263.7174,0,U,49000,999,24332,.2014217E-3,.9E-6,0
ONEWEB-0283,2021-060AL,2026-07-15T12:11:49.526304,13.16593450,.00020231,87.9076,223.1535,98.3900,261.7460,0,U,49001,999,24334,.10851434E-3,.54E-6,0
ONEWEB-0284,2021-060AM,2026-07-15T12:02:43.065312,13.16594156,.00023881,87.9078,223.1486,91.1931,268.9474,0,U,49002,999,24332,.18424803E-3,.83E-6,0
ONEWEB-0285,2021-075A,2026-07-15T10:05:32.375904,13.12444739,.00017892,87.8970,345.0488,90.3118,269.8216,0,U,49075,999,23891,.44738028E-3,.174E-5,0
ONEWEB-0286,2021-075B,2026-07-15T11:29:29.645376,13.12442404,.00017589,87.8961,345.0514,89.9214,270.2116,0,U,49076,999,23827,.12834963E-2,.474E-5,0
ONEWEB-0287,2021-075C,2026-07-15T09:57:27.862848,13.17648198,.00018786,87.9144,0.2497,79.3030,280.8313,0,U,49077,999,23734,-.5663639E-5,.11E-6,0
ONEWEB-0288,2021-075D,2026-07-15T10:55:31.266336,13.12443255,.00019718,87.8969,345.0353,89.4335,270.7020,0,U,49078,999,23889,-.33737884E-3,-.109E-5,0
ONEWEB-0289,2021-075E,2026-07-15T10:53:21.211008,13.17650116,.00022778,87.9152,0.2605,96.5033,263.6357,0,U,49079,999,23792,.51801714E-4,.33E-6,0
ONEWEB-0290,2021-075F,2026-07-15T12:03:49.228704,13.17650048,.00023645,87.9153,0.2232,96.6280,263.5120,0,U,49080,999,23734,-.63040204E-4,-.12E-6,0
ONEWEB-0291,2021-075G,2026-07-15T11:41:58.652160,13.17647108,.000211,87.9146,0.2324,84.8049,275.3323,0,U,49081,999,23733,-.96578595E-4,-.25E-6,0
ONEWEB-0293,2021-075H,2026-07-15T10:29:02.753088,13.17650247,.00020138,87.9146,0.2448,92.5009,267.6353,0,U,49082,999,23735,.16821952E-4,.19E-6,0
ONEWEB-0294,2021-075J,2026-07-15T11:05:17.220768,13.12444113,.00021941,87.8972,345.0378,97.1712,262.9666,0,U,49083,999,23828,.16389966E-3,.72E-6,0
ONEWEB-0295,2021-075K,2026-07-15T12:17:11.340384,13.17649985,.00019952,87.9145,0.2340,84.5645,275.5714,0,U,49084,999,23732,.96555007E-4,.5E-6,0
ONEWEB-0296,2021-075L,2026-07-15T10:36:00.249120,13.12443171,.00020326,87.8970,345.0502,87.4332,272.7030,0,U,49085,999,23828,-.11461265E-2,-.4E-5,0
ONEWEB-0297,2021-075M,2026-07-15T11:19:55.611552,13.12443196,.00018561,87.8960,345.0511,92.5128,267.6213,0,U,49086,999,23889,.80555248E-3,.303E-5,0
ONEWEB-0298,2021-075N,2026-07-15T10:34:08.559840,13.17648871,.00017424,87.9147,0.2466,90.7536,269.3795,0,U,49087,999,23734,.80345914E-4,.44E-6,0
ONEWEB-0299,2021-075P,2026-07-15T10:36:20.876256,13.17648139,.00018388,87.9157,0.2289,87.2055,272.9287,0,U,49088,999,23732,.47837245E-4,.31E-6,0
ONEWEB-0300,2021-075Q,2026-07-15T11:08:56.745888,13.12443711,.0001497,87.8972,345.0352,95.2984,264.8316,0,U,49089,999,23891,.58466131E-3,.223E-5,0
ONEWEB-0301,2021-075R,2026-07-15T10:45:45.439776,13.12443659,.00015434,87.8969,345.0360,100.4660,259.6642,0,U,49090,999,23827,-.98046205E-3,-.34E-5,0
ONEWEB-0302,2021-075S,2026-07-15T15:55:35.729472,13.12441583,.00021746,87.8967,345.0054,94.4816,265.6561,0,U,49091,999,23828,-.90856566E-3,-.314E-5,0
ONEWEB-0304,2021-075T,2026-07-15T11:49:14.791584,13.17647040,.00019004,87.9143,0.2390,86.7282,273.4067,0,U,49092,999,23730,-.34307194E-3,-.12E-5,0
ONEWEB-0305,2021-075U,2026-07-15T11:39:31.555296,13.17648343,.00019111,87.9153,0.2269,80.2806,279.8542,0,U,49093,999,23733,.9744665E-5,.17E-6,0
ONEWEB-0308,2021-075V,2026-07-15T15:45:49.833792,13.12441727,.0001854,87.8972,344.9993,96.9463,263.1877,0,U,49094,999,23829,-.37232368E-3,-.121E-5,0
