ONEWEB-0275             
1 48993U 21060AC  26196.50028718  .00000043  00000+0  77845-4 0  9998
2 48993  87.9080 223.1519 0002003  95.8049 264.3310 13.16595599243281
ONEWEB-0276             
1 48994U 21060AD  26196.53355113  .00000158  00000+0  37868-3 0  9991
2 48994  87.9080 223.1443 0001894  95.0668 265.0679 13.16594250243306
ONEWEB-0277             
1 48995U 21060AE  26196.54622018  .00000041  00000+0  74718-4 0  9991
2 48995  87.9075 223.1487 0002145  97.3051 262.8324 13.16595375243299
ONEWEB-0278             
1 48996U 21060AF  26196.53671828  .00000204  00000+0  50014-3 0  9997
2 48996  87.9080 223.1431 0002187  89.6866 270.4516 13.16594371243427
ONEWEB-0279             
1 48997U 21060AG  26196.54463464 -.00000001  00000+0 -37426-4 0  9994
2 48997  87.9082 223.1394 0001998 100.7690 259.3666 13.16594207243359
ONEWEB-0280             
1 48998U 21060AH  26196.48367070  .00000010  00000+0 -77107-5 0  9994
2 48998  87.9082 223.1559 0002440  94.6506 265.4904 13.16595121243284
ONEWEB-0281             
1 48999U 21060AJ  26196.48921688  .00000001  00000+0 -31741-4 0  9999
2 48999  87.9080 223.1503 0002097  91.8443 268.2928 13.16593794243358
ONEWEB-0282             
1 49000U 21060AK  26196.44330039  .00000090  00000+0  20142-3 0  9992
2 49000  87.9077 223.1671 0002170  96.4204 263.7174 13.16594845243320
ONEWEB-0283             
1 49001U 21060AL  26196.50821211  .00000054  00000+0  10851-3 0  9993
2 49001  87.9076 223.1535 0002023  98.3900 261.7460 13.16593450243349
ONEWEB-0284             
1 49002U 21060AM  26196.50188733  .00000083  00000+0  18425-3 0  9996
2 49002  87.9078 223.1486 0002388  91.1931 268.9474 13.16594156243322
ONEWEB-0285             
1 49075U 21075A   26196.42051361  .00000174  00000+0  44738-3 0  9996
2 49075  87.8970 345.0488 0001789  90.3118 269.8216 13.12444739238910
ONEWEB-0286             
1 49076U 21075B   26196.47881534  .00000474  00000+0  12835-2 0  9990
2 49076  87.8961 345.0514 0001758  89.9214 270.2116 13.12442404238279
ONEWEB-0287             
1 49077U 21075C   26196.41490582  .00000011  00000+0 -56636-5 0  9992
2 49077  87.9144   0.2497 0001878  79.3030 280.8313 13.17648198237342
ONEWEB-0288             
1 49078U 21075D   26196.45522299 -.00000109  00000+0 -33738-3 0  9993
2 49078  87.8969 345.0353 0001971  89.4335 270.7020 13.12443255238898
ONEWEB-0289             
1 49079U 21075E   26196.45371772  .00000033  00000+0  51802-4 0  9999
2 49079  87.9152   0.2605 0002277  96.5033 263.6357 13.17650116237926
ONEWEB-0290             
1 49080U 21075F   26196.50265311 -.00000012  00000+0 -63040-4 0  9994
2 49080  87.9153   0.2232 0002364  96.6280 263.5120 13.17650048237344
ONEWEB-0291             
1 49081U 21075G   26196.48748440 -.00000025  00000+0 -96579-4 0  9998
2 49081  87.9146   0.2324 0002110  84.8049 275.3323 13.17647108237338
ONEWEB-0293             
1 49082U 21075H   26196.43683742  .00000019  00000+0  16822-4 0  9991
2 49082  87.9146   0.2448 0002013  92.5009 267.6353 13.17650247237357
ONEWEB-0294             
1 49083U 21075J   26196.46200487  .00000072  00000+0  16390-3 0  9994
2 49083  87.8972 345.0378 0002194  97.1712 262.9666 13.12444113238284
ONEWEB-0295             
1 49084U 21075K   26196.51193681  .00000050  00000+0  96555-4 0  9996
2 49084  87.9145   0.2340 0001995  84.5645 275.5714 13.17649985237327
ONEWEB-0296             
1 49085U 21075L   26196.44166955 -.00000400  00000+0 -11461-2 0  9995
2 49085  87.8970 345.0502 0002032  87.4332 272.7030 13.12443171238281
ONEWEB-0297             
1 49086U 21075M   26196.47217143  .00000303  00000+0  80555-3 0  9996
2 49086  87.8960 345.0511 0001856  92.5128 267.6213 13.12443196238894
ONEWEB-0298             
1 49087U 21075N   26196.44037685  .00000044  00000+0  80346-4 0  9996
2 49087  87.9147   0.2466 0001742  90.7536 269.3795 13.17648871237344
ONEWEB-0299             
1 49088U 21075P   26196.44190829  .00000031  00000+0  47837-4 0  9991
2 49088  87.9157   0.2289 0001838  87.2055 272.9287 13.17648139237323
ONEWEB-0300             
1 49089U 21075Q   26196.46454567  .00000223  00000+0  58466-3 0  9998
2 49089  87.8972 345.0352 0001497  95.2984 264.8316 13.12443711238913
ONEWEB-0301             
1 49090U 21075R   26196.44844259 -.00000340  00000+0 -98046-3 0  9999
2 49090  87.8969 345.0360 0001543 100.4660 259.6642 13.12443659238276
ONEWEB-0302             
1 49091U 21075S   26196.66360798 -.00000314  00000+0 -90857-3 0  9998
2 49091  87.8967 345.0054 0002174  94.4816 265.6561 13.12441583238283
ONEWEB-0304             
1 49092U 21075T   26196.49253231 -.00000120  00000+0 -34307-3 0  9996
2 49092  87.9143   0.2390 0001900  86.7282 273.4067 13.17647040237302
ONEWEB-0305             
1 49093U 21075U   26196.48578189  .00000017  00000+0  97447-5 0  9997
2 49093  87.9153   0.2269 0001911  80.2806 279.8542 13.17648343237330
ONEWEB-0308             
1 49094U 21075V   26196.65682678 -.00000121  00000+0 -37232-3 0  9998
2 49094  87.8972 344.9993 0001854  96.9463 263.1877 13.12441727238295
